start=new Date('2022-03-04T00:00:00.000Z').valueOf();
sats=[{"PERIOD":"95.592","CENTER_NAME":"EARTH","EPOCH":"2022-03-03T21:22:55.976160","NORAD_CAT_ID":"45377","RA_OF_ASC_NODE":"271.3284","ELEMENT_SET_NO":"999","TIME_SYSTEM":"UTC","CLASSIFICATION_TYPE":"U","EPHEMERIS_TYPE":"0","RCS_SIZE":"LARGE","OBJECT_TYPE":"PAYLOAD","APOAPSIS":"548.360","TLE_LINE1":"1 45377U 20019T   22062.89092565  .00001533  00000-0  12175-3 0  9995","DECAY_DATE":null,"REF_FRAME":"TEME","LAUNCH_DATE":"2020-03-18","COUNTRY_CODE":"US","MEAN_ANOMALY":"290.4357","MEAN_ELEMENT_THEORY":"SGP4","REV_AT_EPOCH":"10865","INCLINATION":"53.0532","MEAN_MOTION_DDOT":"0.0000000000000","OBJECT_NAME":"STARLINK-1305","MEAN_MOTION_DOT":"0.00001533","ECCENTRICITY":"0.00016990","BSTAR":"0.00012175000000","FILE":"3343255","MEAN_MOTION":"15.06409799","PERIAPSIS":"546.007","SITE":"AFETR","GP_ID":"197766076","TLE_LINE2":"2 45377  53.0532 271.3284 0001699  69.6815 290.4357 15.06409799108653","SEMIMAJOR_AXIS":"6925.319","ARG_OF_PERICENTER":"69.6815","OBJECT_ID":"2020-019T"},{"CLASSIFICATION_TYPE":"U","EPHEMERIS_TYPE":"0","RCS_SIZE":"LARGE","OBJECT_TYPE":"PAYLOAD","APOAPSIS":"548.243","MEAN_ANOMALY":"276.5324","DECAY_DATE":null,"TLE_LINE1":"1 45378U 20019U   22062.87988432  .00000936  00000-0  81726-4 0  9996","LAUNCH_DATE":"2020-03-18","REF_FRAME":"TEME","COUNTRY_CODE":"US","REV_AT_EPOCH":"10865","MEAN_ELEMENT_THEORY":"SGP4","MEAN_MOTION_DDOT":"0.0000000000000","INCLINATION":"53.0528","PERIOD":"95.593","CENTER_NAME":"EARTH","NORAD_CAT_ID":"45378","EPOCH":"2022-03-03T21:07:02.005248","RA_OF_ASC_NODE":"271.3939","ELEMENT_SET_NO":"999","TIME_SYSTEM":"UTC","ARG_OF_PERICENTER":"83.5825","SEMIMAJOR_AXIS":"6925.402","OBJECT_ID":"2020-019U","OBJECT_NAME":"STARLINK-1310","ECCENTRICITY":"0.00014080","MEAN_MOTION_DOT":"0.00000936","FILE":"3343255","BSTAR":"0.00008172600000","MEAN_MOTION":"15.06382404","PERIAPSIS":"546.292","SITE":"AFETR","GP_ID":"197765325","TLE_LINE2":"2 45378  53.0528 271.3939 0001408  83.5825 276.5324 15.06382404108652"},{"ARG_OF_PERICENTER":"69.8419","SEMIMAJOR_AXIS":"6925.354","OBJECT_ID":"2020-019V","OBJECT_NAME":"STARLINK-1319","ECCENTRICITY":"0.00014070","MEAN_MOTION_DOT":"0.00001703","FILE":"3343255","BSTAR":"0.00013317000000","MEAN_MOTION":"15.06398340","PERIAPSIS":"546.244","SITE":"AFETR","TLE_LINE2":"2 45379  53.0534 271.3662 0001407  69.8419 290.2722 15.06398340108659","GP_ID":"197765575","CLASSIFICATION_TYPE":"U","EPHEMERIS_TYPE":"0","RCS_SIZE":"LARGE","OBJECT_TYPE":"PAYLOAD","APOAPSIS":"548.193","MEAN_ANOMALY":"290.2722","REF_FRAME":"TEME","TLE_LINE1":"1 45379U 20019V   22062.88356014  .00001703  00000-0  13317-3 0  9996","DECAY_DATE":null,"LAUNCH_DATE":"2020-03-18","COUNTRY_CODE":"US","MEAN_ELEMENT_THEORY":"SGP4","REV_AT_EPOCH":"10865","MEAN_MOTION_DDOT":"0.0000000000000","INCLINATION":"53.0534","PERIOD":"95.592","CENTER_NAME":"EARTH","NORAD_CAT_ID":"45379","EPOCH":"2022-03-03T21:12:19.596096","RA_OF_ASC_NODE":"271.3662","ELEMENT_SET_NO":"999","TIME_SYSTEM":"UTC"},{"ARG_OF_PERICENTER":"72.8371","SEMIMAJOR_AXIS":"6925.347","OBJECT_ID":"2020-019W","PERIAPSIS":"546.231","SITE":"AFETR","GP_ID":"197765826","TLE_LINE2":"2 45380  53.0527 251.3693 0001417  72.8371 287.2773 15.06400361108926","MEAN_MOTION":"15.06400361","BSTAR":"0.00001669600000","FILE":"3343255","OBJECT_NAME":"STARLINK-1207","MEAN_MOTION_DOT":"-0.00000033","ECCENTRICITY":"0.00014170","MEAN_ELEMENT_THEORY":"SGP4","REV_AT_EPOCH":"10892","INCLINATION":"53.0527","MEAN_MOTION_DDOT":"0.0000000000000","APOAPSIS":"548.194","DECAY_DATE":null,"TLE_LINE1":"1 45380U 20019W   22062.88171943 -.00000033  00000-0  16696-4 0  9994","LAUNCH_DATE":"2020-03-18","COUNTRY_CODE":"US","REF_FRAME":"TEME","MEAN_ANOMALY":"287.2773","OBJECT_TYPE":"PAYLOAD","RCS_SIZE":"LARGE","CLASSIFICATION_TYPE":"U","EPHEMERIS_TYPE":"0","TIME_SYSTEM":"UTC","RA_OF_ASC_NODE":"251.3693","ELEMENT_SET_NO":"999","EPOCH":"2022-03-03T21:09:40.558752","NORAD_CAT_ID":"45380","PERIOD":"95.592","CENTER_NAME":"EARTH"},{"SEMIMAJOR_AXIS":"6925.355","ARG_OF_PERICENTER":"89.6537","OBJECT_ID":"2020-019X","FILE":"3343255","BSTAR":"0.00004611300000","OBJECT_NAME":"STARLINK-1258","ECCENTRICITY":"0.00015950","MEAN_MOTION_DOT":"0.00000405","PERIAPSIS":"546.116","SITE":"AFETR","TLE_LINE2":"2 45381  53.0530 251.3137 0001595  89.6537 270.4634 15.06397799108921","GP_ID":"197766577","MEAN_MOTION":"15.06397799","OBJECT_TYPE":"PAYLOAD","RCS_SIZE":"LARGE","CLASSIFICATION_TYPE":"U","EPHEMERIS_TYPE":"0","REV_AT_EPOCH":"10892","MEAN_ELEMENT_THEORY":"SGP4","MEAN_MOTION_DDOT":"0.0000000000000","INCLINATION":"53.0530","APOAPSIS":"548.325","MEAN_ANOMALY":"270.4634","TLE_LINE1":"1 45381U 20019X   22062.89278000  .00000405  00000-0  46113-4 0  9997","DECAY_DATE":null,"COUNTRY_CODE":"US","LAUNCH_DATE":"2020-03-18","REF_FRAME":"TEME","NORAD_CAT_ID":"45381","EPOCH":"2022-03-03T21:25:36.192000","PERIOD":"95.592","CENTER_NAME":"EARTH","TIME_SYSTEM":"UTC","RA_OF_ASC_NODE":"251.3137","ELEMENT_SET_NO":"999"},{"PERIAPSIS":"546.299","SITE":"AFETR","GP_ID":"197764825","TLE_LINE2":"2 45382  53.0547 251.4380 0001350  84.5571 275.5572 15.06393308108741","MEAN_MOTION":"15.06393308","BSTAR":"0.00000078264000","FILE":"3343255","OBJECT_NAME":"STARLINK-1264","MEAN_MOTION_DOT":"-0.00000270","ECCENTRICITY":"0.00013500","ARG_OF_PERICENTER":"84.5571","SEMIMAJOR_AXIS":"6925.369","OBJECT_ID":"2020-019Y","TIME_SYSTEM":"UTC","RA_OF_ASC_NODE":"251.4380","ELEMENT_SET_NO":"999","EPOCH":"2022-03-03T20:53:45.133728","NORAD_CAT_ID":"45382","PERIOD":"95.593","CENTER_NAME":"EARTH","MEAN_ELEMENT_THEORY":"SGP4","REV_AT_EPOCH":"10874","INCLINATION":"53.0547","MEAN_MOTION_DDOT":"0.0000000000000","APOAPSIS":"548.169","TLE_LINE1":"1 45382U 20019Y   22062.87066127 -.00000270  00000-0  78264-6 0  9996","DECAY_DATE":null,"REF_FRAME":"TEME","LAUNCH_DATE":"2020-03-18","COUNTRY_CODE":"US","MEAN_ANOMALY":"275.5572","RCS_SIZE":"LARGE","OBJECT_TYPE":"PAYLOAD","CLASSIFICATION_TYPE":"U","EPHEMERIS_TYPE":"0"},{"ARG_OF_PERICENTER":"80.6421","SEMIMAJOR_AXIS":"6925.344","OBJECT_ID":"2020-019Z","OBJECT_NAME":"STARLINK-1266","ECCENTRICITY":"0.00013700","MEAN_MOTION_DOT":"0.00001562","FILE":"3343255","BSTAR":"0.00012373000000","MEAN_MOTION":"15.06401410","PERIAPSIS":"546.260","SITE":"AFETR","GP_ID":"197765075","TLE_LINE2":"2 45383  53.0551 251.9520 0001370  80.6421 279.4723 15.06401410108904","CLASSIFICATION_TYPE":"U","EPHEMERIS_TYPE":"0","RCS_SIZE":"LARGE","OBJECT_TYPE":"PAYLOAD","APOAPSIS":"548.158","MEAN_ANOMALY":"279.4723","DECAY_DATE":null,"TLE_LINE1":"1 45383U 20019Z   22062.75270275  .00001562  00000-0  12373-3 0  9995","REF_FRAME":"TEME","LAUNCH_DATE":"2020-03-18","COUNTRY_CODE":"US","REV_AT_EPOCH":"10890","MEAN_ELEMENT_THEORY":"SGP4","MEAN_MOTION_DDOT":"0.0000000000000","INCLINATION":"53.0551","PERIOD":"95.592","CENTER_NAME":"EARTH","NORAD_CAT_ID":"45383","EPOCH":"2022-03-03T18:03:53.517600","RA_OF_ASC_NODE":"251.9520","ELEMENT_SET_NO":"999","TIME_SYSTEM":"UTC"},{"SEMIMAJOR_AXIS":"6925.371","ARG_OF_PERICENTER":"79.1120","OBJECT_ID":"2020-019AA","MEAN_MOTION":"15.06392819","PERIAPSIS":"546.121","SITE":"AFETR","GP_ID":"197766327","TLE_LINE2":"2 45384  53.0550 251.4081 0001609  79.1120 281.0050 15.06392819108921","OBJECT_NAME":"STARLINK-1267","MEAN_MOTION_DOT":"0.00000044","ECCENTRICITY":"0.00016090","FILE":"3343255","BSTAR":"0.00002183900000","APOAPSIS":"548.350","MEAN_ANOMALY":"281.0050","DECAY_DATE":null,"TLE_LINE1":"1 45384U 20019AA  22062.87434792  .00000044  00000-0  21839-4 0  9997","LAUNCH_DATE":"2020-03-18","COUNTRY_CODE":"US","REF_FRAME":"TEME","REV_AT_EPOCH":"10892","MEAN_ELEMENT_THEORY":"SGP4","MEAN_MOTION_DDOT":"0.0000000000000","INCLINATION":"53.0550","CLASSIFICATION_TYPE":"U","EPHEMERIS_TYPE":"0","RCS_SIZE":"LARGE","OBJECT_TYPE":"PAYLOAD","RA_OF_ASC_NODE":"251.4081","ELEMENT_SET_NO":"999","TIME_SYSTEM":"UTC","PERIOD":"95.593","CENTER_NAME":"EARTH","NORAD_CAT_ID":"45384","EPOCH":"2022-03-03T20:59:03.660288"},{"OBJECT_ID":"2020-019AC","SEMIMAJOR_AXIS":"6925.344","ARG_OF_PERICENTER":"83.2400","MEAN_MOTION":"15.06401425","TLE_LINE2":"2 45386  53.0542 251.4006 0001479  83.2400 276.8757 15.06401425108923","GP_ID":"197766077","SITE":"AFETR","PERIAPSIS":"546.185","MEAN_MOTION_DOT":"0.00001765","ECCENTRICITY":"0.00014790","OBJECT_NAME":"STARLINK-1272","BSTAR":"0.00013732000000","FILE":"3343255","DECAY_DATE":null,"TLE_LINE1":"1 45386U 20019AC  22062.87802597  .00001765  00000-0  13732-3 0  9994","REF_FRAME":"TEME","LAUNCH_DATE":"2020-03-18","COUNTRY_CODE":"US","MEAN_ANOMALY":"276.8757","APOAPSIS":"548.233","INCLINATION":"53.0542","MEAN_MOTION_DDOT":"0.0000000000000","MEAN_ELEMENT_THEORY":"SGP4","REV_AT_EPOCH":"10892","EPHEMERIS_TYPE":"0","CLASSIFICATION_TYPE":"U","RCS_SIZE":"LARGE","OBJECT_TYPE":"PAYLOAD","ELEMENT_SET_NO":"999","RA_OF_ASC_NODE":"251.4006","TIME_SYSTEM":"UTC","CENTER_NAME":"EARTH","PERIOD":"95.592","EPOCH":"2022-03-03T21:04:21.443808","NORAD_CAT_ID":"45386"},{"OBJECT_ID":"2020-019AD","SEMIMAJOR_AXIS":"6925.341","ARG_OF_PERICENTER":"84.4686","MEAN_MOTION":"15.06402591","GP_ID":"197765326","TLE_LINE2":"2 45387  53.0540 251.5909 0001496  84.4686 275.6473 15.06402591108919","PERIAPSIS":"546.170","SITE":"AFETR","ECCENTRICITY":"0.00014960","MEAN_MOTION_DOT":"-0.00000236","OBJECT_NAME":"STARLINK-1274","FILE":"3343255","BSTAR":"0.00000303670000","MEAN_ANOMALY":"275.6473","TLE_LINE1":"1 45387U 20019AD  22062.83379427 -.00000236  00000-0  30367-5 0  9990","DECAY_DATE":null,"REF_FRAME":"TEME","LAUNCH_DATE":"2020-03-18","COUNTRY_CODE":"US","APOAPSIS":"548.242","MEAN_MOTION_DDOT":"0.0000000000000","INCLINATION":"53.0540","REV_AT_EPOCH":"10891","MEAN_ELEMENT_THEORY":"SGP4","EPHEMERIS_TYPE":"0","CLASSIFICATION_TYPE":"U","RCS_SIZE":"LARGE","OBJECT_TYPE":"PAYLOAD","ELEMENT_SET_NO":"999","RA_OF_ASC_NODE":"251.5909","TIME_SYSTEM":"UTC","CENTER_NAME":"EARTH","PERIOD":"95.592","NORAD_CAT_ID":"45387","EPOCH":"2022-03-03T20:00:39.824928"}];
